BEIJING 1               
1 28890U 05043A   25015.57632899  .00000646  00000+0  13559-3 0  9992
2 28890  98.2220 143.2968 0015960 100.9345 259.3653 14.62902816 24950
HUANJING 1A (HJ-1A)     
1 33320U 08041A   25015.60847057  .00002498  00000+0  32166-3 0  9997
2 33320  97.6355  18.4335 0020780  40.4298 319.8455 14.81791515881695
HUANJING 1B (HJ-1B)     
1 33321U 08041B   25015.60414229  .00001693  00000+0  21922-3 0  9993
2 33321  97.6269  22.8130 0039079  81.3709 279.1929 14.81565258881725
YAOGAN-4                
1 33446U 08061A   25015.37350864  .00001682  00000+0  22215-3 0  9995
2 33446  97.8962 309.5977 0013871 321.5285  38.4938 14.81288393868957
DEIMOS-1                
1 35681U 09041A   25015.57597398  .00001059  00000+0  16750-3 0  9999
2 35681  97.6851 192.3549 0002642  75.4438 284.7065 14.74172066830594
UK-DMC 2                
1 35683U 09041C   25015.55790180  .00001545  00000+0  23934-3 0  9995
2 35683  97.8069 161.0351 0001434  96.5160 263.6212 14.74535155830241
DMC3-FM1                
1 40715U 15032A   25015.60701638  .00001188  00000+0  14671-3 0  9991
2 40715  97.7206 254.0329 0004890 330.8214  29.2728 14.84634963513082
DMC3-FM2                
1 40716U 15032B   25015.62939298  .00001240  00000+0  15282-3 0  9997
2 40716  97.7262 255.2679 0006799 331.8986  28.1861 14.84633070513087
DMC3-FM3                
1 40717U 15032C   25015.59990078  .00001217  00000+0  15037-3 0  9999
2 40717  97.7315 256.6177 0008148 327.2363  32.8346 14.84537171513088
